[{"OBJECT_NAME":"HAWK-9C","OBJECT_ID":"2024-066G","EPOCH":"2026-03-08T13:33:16.734528","MEAN_MOTION":14.98771048,"ECCENTRICITY":0.00034369,"INCLINATION":45.5963,"RA_OF_ASC_NODE":76.3952,"ARG_OF_PERICENTER":229.7565,"MEAN_ANOMALY":130.3016,"EPHEMERIS_TYPE":0,"CLASSIFICATION_TYPE":"U","NORAD_CAT_ID":59448,"ELEMENT_SET_NO":999,"REV_AT_EPOCH":10473,"BSTAR":0.00026713286,"MEAN_MOTION_DOT":3.036e-5,"MEAN_MOTION_DDOT":0},{"OBJECT_NAME":"STARLINK-33993","OBJECT_ID":"2025-098Z","EPOCH":"2026-03-09T19:19:59.406816","MEAN_MOTION":14.98390673,"ECCENTRICITY":0.00023778,"INCLINATION":70.0003,"RA_OF_ASC_NODE":273.9954,"ARG_OF_PERICENTER":281.9857,"MEAN_ANOMALY":78.1036,"EPHEMERIS_TYPE":0,"CLASSIFICATION_TYPE":"U","NORAD_CAT_ID":63949,"ELEMENT_SET_NO":999,"REV_AT_EPOCH":4657,"BSTAR":-0.0074293417,"MEAN_MOTION_DOT":-0.00087772,"MEAN_MOTION_DDOT":0}]
